CCSDS_OMM_VERS,COMMENT,CREATION_DATE,ORIGINATOR,OBJECT_NAME,OBJECT_ID,CENTER_NAME,REF_FRAME,TIME_SYSTEM,MEAN_ELEMENT_THEORY,EPOCH,MEAN_MOTION,ECCENTRICITY,INCLINATION,RA_OF_ASC_NODE,ARG_OF_PERICENTER,MEAN_ANOMALY,EPHEMERIS_TYPE,CLASSIFICATION_TYPE,NORAD_CAT_ID,ELEMENT_SET_NO,REV_AT_EPOCH,BSTAR,MEAN_MOTION_DOT,MEAN_MOTION_DDOT,SEMIMAJOR_AXIS,PERIOD,APOAPSIS,PERIAPSIS,OBJECT_TYPE,RCS_SIZE,COUNTRY_CODE,LAUNCH_DATE,SITE,DECAY_DATE,FILE,GP_ID,TLE_LINE0,TLE_LINE1,TLE_LINE2
2,GENERATED VIA SPACE-TRACK.ORG API,2011-08-21T07:31:38,18 SPCS,LEASAT 5,1990-002B,EARTH,TEME,UTC,SGP4,2011-08-20T01:16:58.662336,1.00273386,0.0002314,9.632,30.021,86.3173,302.9376,0,U,20410,999,6440,0.0001,-7.4e-07,0,42164.31,1436.073,35795.931,35776.418,PAYLOAD,LARGE,US,1990-01-09,AFETR,,1141512,84607400,0 LEASAT 5,1 20410U 90002B   11232.05345674 -.00000074 +00000-0 +10000-3 0  9997,2 20410 009.6320 030.0210 0002314 086.3173 302.9376 01.00273386064407
2,GENERATED VIA SPACE-TRACK.ORG API,2011-08-22T00:33:25,18 SPCS,LEASAT 5,1990-002B,EARTH,TEME,UTC,SGP4,2011-08-21T01:48:52.849152,1.00273478,0.0002286,9.6334,30.0125,86.885,311.3662,0,U,20410,999,6441,0.0001,-7.3e-07,0,42164.284,1436.072,35795.788,35776.51,PAYLOAD,LARGE,US,1990-01-09,AFETR,,1141868,84617113,0 LEASAT 5,1 20410U 90002B   11233.07561168 -.00000073  00000-0  10000-3 0  9997,2 20410 009.6334 030.0125 0002286 086.8850 311.3662 01.00273478 64417
2,GENERATED VIA SPACE-TRACK.ORG API,2011-08-22T10:37:59,18 SPCS,LEASAT 5,1990-002B,EARTH,TEME,UTC,SGP4,2011-08-21T01:48:52.849152,1.00273478,0.0002286,9.6334,30.0125,86.885,311.3662,0,U,20410,999,6441,0.0001,-7.4e-07,0,42164.284,1436.072,35795.788,35776.51,PAYLOAD,LARGE,US,1990-01-09,AFETR,,1142123,84625462,0 LEASAT 5,1 20410U 90002B   11233.07561168 -.00000074 +00000-0 +10000-3 0  9998,2 20410 009.6334 030.0125 0002286 086.8850 311.3662 01.00273478064417
2,GENERATED VIA SPACE-TRACK.ORG API,2011-08-23T08:09:29,18 SPCS,LEASAT 5,1990-002B,EARTH,TEME,UTC,SGP4,2011-08-21T22:53:26.424383,1.00273545,0.0002283,9.6346,30.0054,87.1151,268.1529,0,U,20410,999,6441,0.0001,-7.3e-07,0,42164.265,1436.071,35795.756,35776.504,PAYLOAD,LARGE,US,1990-01-09,AFETR,,1142523,84638319,0 LEASAT 5,1 20410U 90002B   11233.95377806 -.00000073 +00000-0 +10000-3 0  9998,2 20410 009.6346 030.0054 0002283 087.1151 268.1529 01.00273545064412
2,GENERATED VIA SPACE-TRACK.ORG API,2011-08-24T00:32:14,18 SPCS,LEASAT 5,1990-002B,EARTH,TEME,UTC,SGP4,2011-08-24T00:30:23.147136,1.00273656,0.0002273,9.6377,29.989,87.8473,293.7199,0,U,20410,999,6444,0.0001,-7.4e-07,0,42164.234,1436.07,35795.683,35776.515,PAYLOAD,LARGE,US,1990-01-09,AFETR,,1142835,84647537,0 LEASAT 5,1 20410U 90002B   11236.02110124 -.00000074  00000-0  10000-3 0  9998,2 20410 009.6377 029.9890 0002273 087.8473 293.7199 01.00273656 64447
2,GENERATED VIA SPACE-TRACK.ORG API,2011-08-24T17:51:31,18 SPCS,LEASAT 5,1990-002B,EARTH,TEME,UTC,SGP4,2011-08-24T14:26:58.255296,1.0027342,0.0002192,9.6382,29.9824,93.8239,137.4631,0,U,20410,999,6444,0.0001,-7.4e-07,0,42164.3,1436.073,35795.407,35776.923,PAYLOAD,LARGE,US,1990-01-09,AFETR,,1143207,84660290,0 LEASAT 5,1 20410U 90002B   11236.60206314 -.00000074  00000-0  10000-3 0  9999,2 20410 009.6382 029.9824 0002192 093.8239 137.4631 01.00273420 64441
2,GENERATED VIA SPACE-TRACK.ORG API,2011-08-26T07:38:49,18 SPCS,LEASAT 5,1990-002B,EARTH,TEME,UTC,SGP4,2011-08-25T13:32:01.175136,1.00273485,0.0002161,9.6396,29.9745,94.2679,124.2409,0,U,20410,999,6445,0.0001,-7.5e-07,0,42164.282,1436.072,35795.259,35777.035,PAYLOAD,LARGE,US,1990-01-09,AFETR,,1143936,84682289,0 LEASAT 5,1 20410U 90002B   11237.56390249 -.00000075 +00000-0 +10000-3 0  9997,2 20410 009.6396 029.9745 0002161 094.2679 124.2409 01.00273485064456
2,GENERATED VIA SPACE-TRACK.ORG API,2011-08-26T16:45:56,18 SPCS,LEASAT 5,1990-002B,EARTH,TEME,UTC,SGP4,2011-08-26T21:34:16.890240,1.00273683,0.0001976,9.642,29.9634,96.7225,243.6873,0,U,20410,999,6446,0.0001,-7.6e-07,0,42164.226,1436.069,35794.423,35777.76,PAYLOAD,LARGE,US,1990-01-09,AFETR,,1144129,84689792,0 LEASAT 5,1 20410U 90002B   11238.89880660 -.00000076  00000-0  10000-3 0  9996,2 20410 009.6420 029.9634 0001976 096.7225 243.6873 01.00273683 64460
2,GENERATED VIA SPACE-TRACK.ORG API,2011-08-27T16:48:21,18 SPCS,LEASAT 5,1990-002B,EARTH,TEME,UTC,SGP4,2011-08-27T21:46:22.875743,1.00273732,0.0001988,9.6434,29.9574,94.4931,249.9459,0,U,20410,999,6447,0.0001,-7.7e-07,0,42164.213,1436.069,35794.46,35777.695,PAYLOAD,LARGE,US,1990-01-09,AFETR,,1144583,84704491,0 LEASAT 5,1 20410U 90002B   11239.90720921 -.00000077  00000-0  10000-3 0  9993,2 20410 009.6434 029.9574 0001988 094.4931 249.9459 01.00273732 64475
2,GENERATED VIA SPACE-TRACK.ORG API,2011-08-28T08:31:17,18 SPCS,LEASAT 5,1990-002B,EARTH,TEME,UTC,SGP4,2011-08-27T21:46:22.875743,1.0027371,0.000199,9.6433,29.9575,92.9147,251.5231,0,U,20410,999,6447,0.0001,-7.8e-07,0,42164.219,1436.069,35794.474,35777.693,PAYLOAD,LARGE,US,1990-01-09,AFETR,,1144850,84712341,0 LEASAT 5,1 20410U 90002B   11239.90720921 -.00000078 +00000-0 +10000-3 0  9994,2 20410 009.6433 029.9575 0001990 092.9147 251.5231 01.00273710064473
2,GENERATED VIA SPACE-TRACK.ORG API,2011-08-29T00:50:11,18 SPCS,LEASAT 5,1990-002B,EARTH,TEME,UTC,SGP4,2011-08-29T03:04:42.458880,1.00273778,0.0001985,9.6451,29.9479,94.1654,331.0723,0,U,20410,999,6449,0.0001,-7.9e-07,0,42164.2,1436.068,35794.434,35777.695,PAYLOAD,LARGE,US,1990-01-09,AFETR,,1145164,84721261,0 LEASAT 5,1 20410U 90002B   11241.12826920 -.00000079  00000-0  10000-3 0  9998,2 20410 009.6451 029.9479 0001985 094.1654 331.0723 01.00273778 64493
2,GENERATED VIA SPACE-TRACK.ORG API,2011-08-31T23:15:39,18 SPCS,LEASAT 5,1990-002B,EARTH,TEME,UTC,SGP4,2011-08-31T21:07:10.246080,1.00272354,0.0001874,9.6494,29.9242,82.9571,255.6245,0,U,20410,999,6451,0.0001,-8.3e-07,0,42164.599,1436.088,35794.366,35778.562,PAYLOAD,LARGE,US,1990-01-09,AFETR,,1146709,84765761,0 LEASAT 5,1 20410U 90002B   11243.87997970 -.00000083  00000-0  10000-3 0  9991,2 20410 009.6494 029.9242 0001874 082.9571 255.6245 01.00272354 64510
2,GENERATED VIA SPACE-TRACK.ORG API,2011-09-02T11:21:11,18 SPCS,LEASAT 5,1990-002B,EARTH,TEME,UTC,SGP4,2011-09-01T17:35:46.306176,1.00272492,0.0001906,9.6508,29.9168,81.5347,205.0468,0,U,20410,999,6452,0.0001,-8.5e-07,0,42164.56,1436.086,35794.462,35778.389,PAYLOAD,LARGE,US,1990-01-09,AFETR,,1147577,84790437,0 LEASAT 5,1 20410U 90002B   11244.73317484 -.00000085 +00000-0 +10000-3 0  9995,2 20410 009.6508 029.9168 0001906 081.5347 205.0468 01.00272492064525
2,GENERATED VIA SPACE-TRACK.ORG API,2011-09-02T00:39:19,18 SPCS,LEASAT 5,1990-002B,EARTH,TEME,UTC,SGP4,2011-09-02T02:15:42.666048,1.00272596,0.0001937,9.6513,29.9142,79.8126,337.1136,0,U,20410,999,6453,0.0001,-8.6e-07,0,42164.531,1436.085,35794.563,35778.229,PAYLOAD,LARGE,US,1990-01-09,AFETR,,1147270,84782228,0 LEASAT 5,1 20410U 90002B   11245.09424382 -.00000086  00000-0  10000-3 0  9992,2 20410 009.6513 029.9142 0001937 079.8126 337.1136 01.00272596 64537
2,GENERATED VIA SPACE-TRACK.ORG API,2011-09-03T10:27:23,18 SPCS,LEASAT 5,1990-002B,EARTH,TEME,UTC,SGP4,2011-09-02T02:15:42.666048,1.0027256,0.0001943,9.6514,29.9143,79.7937,337.132,0,U,20410,999,6453,0.0001,-8.6e-07,0,42164.541,1436.085,35794.599,35778.214,PAYLOAD,LARGE,US,1990-01-09,AFETR,,1148074,84805415,0 LEASAT 5,1 20410U 90002B   11245.09424382 -.00000086 +00000-0 +10000-3 0  9992,2 20410 009.6514 029.9143 0001943 079.7937 337.1320 01.00272560064531
2,GENERATED VIA SPACE-TRACK.ORG API,2011-09-04T10:54:51,18 SPCS,LEASAT 5,1990-002B,EARTH,TEME,UTC,SGP4,2011-09-03T00:40:49.166112,1.00272564,0.0001957,9.6527,29.9069,80.1878,313.9435,0,U,20410,999,6454,0.0001,-8.9e-07,0,42164.54,1436.085,35794.657,35778.153,PAYLOAD,LARGE,US,1990-01-09,AFETR,,1148442,84820565,0 LEASAT 5,1 20410U 90002B   11246.02834683 -.00000089 +00000-0 +10000-3 0  9998,2 20410 009.6527 029.9069 0001957 080.1878 313.9435 01.00272564064541
2,GENERATED VIA SPACE-TRACK.ORG API,2011-09-06T00:36:11,18 SPCS,LEASAT 5,1990-002B,EARTH,TEME,UTC,SGP4,2011-09-05T18:05:24.255744,1.00272955,0.0001956,9.6571,29.886,81.8619,216.1309,0,U,20410,999,6456,0.0001,-9.3e-07,0,42164.43,1436.08,35794.543,35778.048,PAYLOAD,LARGE,US,1990-01-09,AFETR,,1149006,84842833,0 LEASAT 5,1 20410U 90002B   11248.75375296 -.00000093  00000-0  10000-3 0  9995,2 20410 009.6571 029.8860 0001956 081.8619 216.1309 01.00272955 64568
2,GENERATED VIA SPACE-TRACK.ORG API,2011-09-08T08:54:51,18 SPCS,LEASAT 5,1990-002B,EARTH,TEME,UTC,SGP4,2011-09-06T02:39:55.329984,1.00272951,0.0001959,9.6577,29.8828,82.4352,344.5427,0,U,20410,999,6457,0.0001,-9.3e-07,0,42164.432,1436.08,35794.557,35778.037,PAYLOAD,LARGE,US,1990-01-09,AFETR,,1150469,84880388,0 LEASAT 5,1 20410U 90002B   11249.11105706 -.00000093 +00000-0 +10000-3 0  9993,2 20410 009.6577 029.8828 0001959 082.4352 344.5427 01.00272951064576
2,GENERATED VIA SPACE-TRACK.ORG API,2011-09-09T00:44:52,18 SPCS,LEASAT 5,1990-002B,EARTH,TEME,UTC,SGP4,2011-09-08T20:49:35.033376,1.00273126,0.0001955,9.6618,29.8611,82.6509,259.4884,0,U,20410,999,6459,0.0001,-9.1e-07,0,42164.382,1436.077,35794.491,35778.004,PAYLOAD,LARGE,US,1990-01-09,AFETR,,1150841,84888473,0 LEASAT 5,1 20410U 90002B   11251.86776659 -.00000091  00000-0  10000-3 0  9997,2 20410 009.6618 029.8611 0001955 082.6509 259.4884 01.00273126 64592
2,GENERATED VIA SPACE-TRACK.ORG API,2011-09-09T07:45:36,18 SPCS,LEASAT 5,1990-002B,EARTH,TEME,UTC,SGP4,2011-09-08T20:49:35.033376,1.00273126,0.0001955,9.6618,29.8611,82.6509,259.4884,0,U,20410,999,6459,0.0001,-9.1e-07,0,42164.382,1436.077,35794.491,35778.004,PAYLOAD,LARGE,US,1990-01-09,AFETR,,1150985,84894378,0 LEASAT 5,1 20410U 90002B   11251.86776659 -.00000091 +00000-0 +10000-3 0  9997,2 20410 009.6618 029.8611 0001955 082.6509 259.4884 01.00273126064592
